NORAD_CAT_ID,OBJECT_NAME,OBJECT_TYPE,EPOCH,MEAN_MOTION,ECCENTRICITY,INCLINATION,RA_OF_ASC_NODE,ARG_OF_PERICENTER,MEAN_ANOMALY,BSTAR,MEAN_MOTION_DOT,MEAN_MOTION_DDOT,TLE_LINE0,TLE_LINE1,TLE_LINE2,SEMIMAJOR_AXIS,PERIOD,APOGEE,PERIGEE,DECAYED
53269.0,STARLINK-4057,PAYLOAD,2023-03-29 23:19:22,15.08853462,0.0001,53.2177,333.2061,83.2584,276.8522,0.0019729,0.00031262,0.0,0 STARLINK-4057,1 53269U 22086AD  23088.97178290  .00031262  00000-0  19729-2 0  9991,2 53269  53.2177 333.2061 0001000  83.2584 276.8522 15.08853462 38624,6917.839,95.437,540.396,539.012,0.0
53269.0,STARLINK-4057,PAYLOAD,2023-03-31 00:45:32,15.08858798,0.000115,53.2173,328.449,82.6098,277.5025,0.0013207,0.00020804,0.0,0 STARLINK-4057,1 53269U 22086AD  23090.03162361  .00020804  00000-0  13207-2 0  9998,2 53269  53.2173 328.4490 0001150  82.6098 277.5025 15.08858798 38781,6917.823,95.436,540.483,538.892,0.0
53269.0,STARLINK-4057,PAYLOAD,2023-03-31 15:04:00,15.0884566,0.000183,53.2182,325.7736,81.53,278.5899,0.0007696,0.00011983,0.0,0 STARLINK-4057,1 53269U 22086AD  23090.62778864  .00011983  00000-0  76960-3 0  9998,2 53269  53.2182 325.7736 0001830  81.5300 278.5899 15.08845660 38877,6917.863,95.437,540.994,538.462,0.0
53269.0,STARLINK-4057,PAYLOAD,2023-04-01 14:54:48,15.08835762,0.0001584,53.217,321.3112,85.338,274.7794,0.00014559,2.03e-05,0.0,0 STARLINK-4057,1 53269U 22086AD  23091.62139072  .00002030  00000-0  14559-3 0  9990,2 53269  53.2170 321.3112 0001584  85.3380 274.7794 15.08835762 39022,6917.893,95.438,540.854,538.663,0.0
53269.0,STARLINK-4057,PAYLOAD,2023-04-01 21:16:20,15.08835024,0.0001608,53.2172,320.1212,90.5112,269.6065,0.00023184,3.403e-05,0.0,0 STARLINK-4057,1 53269U 22086AD  23091.88635275  .00003403  00000-0  23184-3 0  9993,2 53269  53.2172 320.1212 0001608  90.5112 269.6065 15.08835024 39249,6917.896,95.438,540.873,538.648,0.0
53269.0,STARLINK-4057,PAYLOAD,2023-04-02 14:45:35,15.08842785,0.0001288,53.2169,316.8502,85.5519,274.562,0.00040794,6.211e-05,0.0,0 STARLINK-4057,1 53269U 22086AD  23092.61499412  .00006211  00000-0  40794-3 0  9992,2 53269  53.2169 316.8502 0001288  85.5519 274.5620 15.08842785 39354,6917.872,95.437,540.628,538.846,0.0
53269.0,STARLINK-4057,PAYLOAD,2023-04-02 21:07:07,15.08853898,0.0001331,53.2169,315.6609,89.4001,270.7143,0.00074897,0.00011656,0.0,0 STARLINK-4057,1 53269U 22086AD  23092.87995065  .00011656  00000-0  74897-3 0  9995,2 53269  53.2169 315.6609 0001331  89.4001 270.7143 15.08853898 39217,6917.838,95.437,540.624,538.782,0.0
53269.0,STARLINK-4057,PAYLOAD,2023-04-03 14:36:22,15.08844641,0.0001251,53.217,312.3924,71.7222,288.3906,0.00017676,2.527e-05,0.0,0 STARLINK-4057,1 53269U 22086AD  23093.60859099  .00002527  00000-0  17676-3 0  9992,2 53269  53.2170 312.3924 0001251  71.7222 288.3906 15.08844641 39503,6917.866,95.437,540.597,538.866,0.0
53269.0,STARLINK-4057,PAYLOAD,2023-04-03 20:57:54,15.08849277,0.000154,53.2168,311.2031,71.8748,288.2412,0.00030698,4.602e-05,0.0,0 STARLINK-4057,1 53269U 22086AD  23093.87355004  .00004602  00000-0  30698-3 0  9993,2 53269  53.2168 311.2031 0001540  71.8748 288.2412 15.08849277 39367,6917.852,95.437,540.782,538.652,0.0
53269.0,STARLINK-4057,PAYLOAD,2023-04-05 01:34:51,15.08848219,0.0001325,53.2162,305.8485,74.7931,285.3208,0.00019004,2.739e-05,0.0,0 STARLINK-4057,1 53269U 22086AD  23095.06586899  .00002739  00000-0  19004-3 0  9991,2 53269  53.2162 305.8485 0001325  74.7931 285.3208 15.08848219 39546,6917.855,95.437,540.637,538.804,0.0
53269.0,STARLINK-4057,PAYLOAD,2023-04-05 12:42:33,15.08835151,0.0001445,53.2152,303.7688,58.3325,301.7808,4.1921e-05,3.79e-06,0.0,0 STARLINK-4057,1 53269U 22086AD  23095.52955602  .00000379  00000-0  41921-4 0  9996,2 53269  53.2152 303.7688 0001445  58.3325 301.7808 15.08835151 39792,6917.895,95.438,540.76,538.761,0.0
53269.0,STARLINK-4057,PAYLOAD,2023-04-05 14:17:56,15.08837397,0.0001273,53.2156,303.4691,73.8546,286.2586,5.41e-05,5.73e-06,0.0,0 STARLINK-4057,1 53269U 22086AD  23095.59579421  .00000573  00000-0  54100-4 0  9993,2 53269  53.2156 303.4691 0001273  73.8546 286.2586 15.08837397 39629,6917.888,95.438,540.634,538.873,0.0
53269.0,STARLINK-4057,PAYLOAD,2023-04-05 20:39:28,15.0884534,0.0001303,53.2158,302.2805,67.8151,292.2979,0.00021664,3.162e-05,0.0,0 STARLINK-4057,1 53269U 22086AD  23095.86075190  .00003162  00000-0  21664-3 0  9992,2 53269  53.2158 302.2805 0001303  67.8151 292.2979 15.08845340 39848,6917.864,95.437,540.63,538.828,0.0
53269.0,STARLINK-4057,PAYLOAD,2023-04-06 14:08:43,15.08843529,0.0001189,53.216,299.0088,70.7135,289.3985,0.00027077,4.024e-05,0.0,0 STARLINK-4057,1 53269U 22086AD  23096.58939302  .00004024  00000-0  27077-3 0  9998,2 53269  53.2160 299.0088 0001189  70.7135 289.3985 15.08843529 39957,6917.87,95.437,540.557,538.912,0.0
53269.0,STARLINK-4057,PAYLOAD,2023-04-06 22:05:39,15.0885682,0.0001162,53.216,297.5221,70.4633,289.6485,0.00084241,0.00013151,0.0,0 STARLINK-4057,1 53269U 22086AD  23096.92059125  .00013151  00000-0  84241-3 0  9999,2 53269  53.2160 297.5221 0001162  70.4633 289.6485 15.08856820 39822,6917.829,95.436,540.498,538.89,0.0
53269.0,STARLINK-4057,PAYLOAD,2023-04-07 06:02:35,15.08839894,0.0001235,53.2157,296.0351,72.8691,287.2436,0.0005393,8.305e-05,0.0,0 STARLINK-4057,1 53269U 22086AD  23097.25179462  .00008305  00000-0  53930-3 0  9999,2 53269  53.2157 296.0351 0001235  72.8691 287.2436 15.08839894 39874,6917.881,95.438,540.6,538.891,0.0
53269.0,STARLINK-4057,PAYLOAD,2023-04-07 12:24:07,15.08846143,0.0001073,53.2156,294.8456,81.9035,278.2079,0.00085388,0.0001333,0.0,0 STARLINK-4057,1 53269U 22086AD  23097.51675351  .00013330  00000-0  85388-3 0  9992,2 53269  53.2156 294.8456 0001073  81.9035 278.2079 15.08846143 40092,6917.862,95.437,540.469,538.984,0.0
53269.0,STARLINK-4057,PAYLOAD,2023-04-08 05:53:22,15.08829734,0.0001169,53.2155,291.5746,85.3171,274.7955,0.00011685,1.572e-05,0.0,0 STARLINK-4057,1 53269U 22086AD  23098.24539701  .00001572  00000-0  11685-3 0  9995,2 53269  53.2155 291.5746 0001169  85.3171 274.7955 15.08829734 40026,6917.912,95.438,540.585,538.968,0.0
53269.0,STARLINK-4057,PAYLOAD,2023-04-08 13:50:18,15.08830018,0.0001162,53.2153,290.0874,87.6952,272.4173,0.00061076,9.443e-05,0.0,0 STARLINK-4057,1 53269U 22086AD  23098.57660001  .00009443  00000-0  61076-3 0  9993,2 53269  53.2153 290.0874 0001162  87.6952 272.4173 15.08830018 40254,6917.911,95.438,540.58,538.972,0.0
53269.0,STARLINK-4057,PAYLOAD,2023-04-09 12:05:42,15.08843683,0.0001227,53.2152,285.9238,86.589,273.5242,0.00075952,0.00011822,0.0,0 STARLINK-4057,1 53269U 22086AD  23099.50396296  .00011822  00000-0  75952-3 0  9991,2 53269  53.2152 285.9238 0001227  86.5890 273.5242 15.08843683 40218,6917.869,95.437,540.583,538.885,0.0
53269.0,STARLINK-4057,PAYLOAD,2023-04-09 21:38:00,15.088592,0.0001199,53.2154,284.1396,85.4677,274.6452,0.00099372,0.00015571,0.0,0 STARLINK-4057,1 53269U 22086AD  23099.90139901  .00015571  00000-0  99372-3 0  9990,2 53269  53.2154 284.1396 0001199  85.4677 274.6452 15.08859200 40458,6917.822,95.436,540.516,538.857,0.0
53269.0,STARLINK-4057,PAYLOAD,2023-04-10 13:31:52,15.08857024,0.0001193,53.2154,281.1658,88.9027,271.2102,0.00068173,0.00010583,0.0,0 STARLINK-4057,1 53269U 22086AD  23100.56379711  .00010583  00000-0  68173-3 0  9993,2 53269  53.2154 281.1658 0001193  88.9027 271.2102 15.08857024 40375,6917.828,95.436,540.519,538.868,0.0
53269.0,STARLINK-4057,PAYLOAD,2023-04-10 21:28:47,15.08866676,0.0001173,53.2157,279.6789,88.9598,271.1528,0.00098434,0.00015424,0.0,0 STARLINK-4057,1 53269U 22086AD  23100.89499283  .00015424  00000-0  98434-3 0  9998,2 53269  53.2157 279.6789 0001173  88.9598 271.1528 15.08866676 40606,6917.799,95.436,540.475,538.852,0.0
53269.0,STARLINK-4057,PAYLOAD,2023-04-11 11:47:15,15.08849502,0.0001108,53.2158,277.0026,97.6999,262.4119,0.00057641,8.9e-05,0.0,0 STARLINK-4057,1 53269U 22086AD  23101.49115570  .00008900  00000-0  57641-3 0  9995,2 53269  53.2158 277.0026 0001108  97.6999 262.4119 15.08849502 40690,6917.851,95.437,540.483,538.95,0.0
53269.0,STARLINK-4057,PAYLOAD,2023-04-11 19:44:11,15.08848395,9.25e-05,53.2162,275.5166,84.1826,275.9272,0.0013567,0.00021375,0.0,0 STARLINK-4057,1 53269U 22086AD  23101.82235627  .00021375  00000-0  13567-2 0  9997,2 53269  53.2162 275.5166 0000925  84.1826 275.9272 15.08848395 40743,6917.855,95.437,540.36,539.08,0.0
53269.0,STARLINK-4057,PAYLOAD,2023-04-12 11:38:03,15.0884477,7.09e-05,53.2164,272.5432,88.3723,271.7351,0.00088548,0.00013834,0.0,0 STARLINK-4057,1 53269U 22086AD  23102.48475775  .00013834  00000-0  88548-3 0  9993,2 53269  53.2164 272.5432 0000709  88.3723 271.7351 15.08844770 40666,6917.866,95.437,540.221,539.24,0.0
53269.0,STARLINK-4057,PAYLOAD,2023-04-12 17:59:35,15.08851911,0.0001716,53.2162,271.3535,95.7557,264.3631,0.00099402,0.00015572,0.0,0 STARLINK-4057,1 53269U 22086AD  23102.74971688  .00015572  00000-0  99402-3 0  9998,2 53269  53.2162 271.3535 0001716  95.7557 264.3631 15.08851911 40889,6917.844,95.437,540.896,538.522,0.0
53269.0,STARLINK-4057,PAYLOAD,2023-04-13 17:50:22,15.08854763,0.0001158,53.2164,266.8937,85.1568,274.9556,0.0010726,0.00016831,0.0,0 STARLINK-4057,1 53269U 22086AD  23103.74331713  .00016831  00000-0  10726-2 0  9998,2 53269  53.2164 266.8937 0001158  85.1568 274.9556 15.08854763 40859,6917.835,95.437,540.501,538.899,0.0
53269.0,STARLINK-4057,PAYLOAD,2023-04-14 03:22:41,15.08856579,5.72e-05,53.2164,265.1083,356.728,3.3708,0.00089452,0.00013984,0.0,0 STARLINK-4057,1 53269U 22086AD  23104.14075440  .00013984  00000-0  89452-3 0  9994,2 53269  53.2164 265.1083 0000572 356.7280   3.3708 15.08856579 40917,6917.83,95.437,540.09,539.299,0.0
53269.0,STARLINK-4057,PAYLOAD,2023-04-14 11:19:37,15.08844554,0.0001385,53.2147,263.6222,83.8949,276.2201,0.0006636,0.0001029,0.0,0 STARLINK-4057,1 53269U 22086AD  23104.47195941  .00010290  00000-0  66360-3 0  9999,2 53269  53.2147 263.6222 0001385  83.8949 276.2201 15.08844554 41144,6917.866,95.437,540.69,538.773,0.0
